start=new Date('%Y-%m-57T00:00:00.000Z').valueOf();
sats=[{"REV_AT_EPOCH":"2989","ELEMENT_SET_NO":"999","INCLINATION":"53.0556","NORAD_CAT_ID":"47637","RCS_SIZE":"LARGE","MEAN_MOTION_DOT":"0.00000575","BSTAR":"0.00005749100000","OBJECT_NAME":"STARLINK-2014","MEAN_ELEMENT_THEORY":"SGP4","ARG_OF_PERICENTER":"151.6542","LAUNCH_DATE":"2021-02-16","DECAY_DATE":null,"SITE":"AFETR","OBJECT_TYPE":"PAYLOAD","MEAN_MOTION_DDOT":"0.0000000000000","COUNTRY_CODE":"US","EPOCH":"2021-08-21T11:59:22.800480","TLE_LINE1":"1 47637U 21012T   21233.49956945  .00000575  00000-0  57491-4 0  9992","OBJECT_ID":"2021-012T","FILE":"3100831","APOAPSIS":"547.627","PERIAPSIS":"546.856","MEAN_ANOMALY":"208.4478","TLE_LINE2":"2 47637  53.0556 308.9790 0000557 151.6542 208.4478 15.06390924 29890","EPHEMERIS_TYPE":"0","RA_OF_ASC_NODE":"308.9790","PERIOD":"95.593","REF_FRAME":"TEME","SEMIMAJOR_AXIS":"6925.376","MEAN_MOTION":"15.06390924","TIME_SYSTEM":"UTC","CENTER_NAME":"EARTH","ECCENTRICITY":"0.00005570","CLASSIFICATION_TYPE":"U","GP_ID":"183187046"},{"PERIOD":"91.532","RA_OF_ASC_NODE":"255.0148","REF_FRAME":"TEME","SEMIMAJOR_AXIS":"6727.828","MEAN_MOTION":"15.73223523","TIME_SYSTEM":"UTC","CENTER_NAME":"EARTH","ECCENTRICITY":"0.00046130","CLASSIFICATION_TYPE":"U","GP_ID":"183186797","OBJECT_TYPE":"PAYLOAD","SITE":"AFETR","MEAN_MOTION_DDOT":"0.0000000000000","COUNTRY_CODE":"US","TLE_LINE1":"1 47638U 21012U   21233.53177676  .00001371  00000-0  14208-4 0  9998","EPOCH":"2021-08-21T12:45:45.512064","OBJECT_ID":"2021-012U","FILE":"3100831","APOAPSIS":"352.797","PERIAPSIS":"346.590","MEAN_ANOMALY":"355.4058","TLE_LINE2":"2 47638  53.0417 255.0148 0004613   4.7002 355.4058 15.73223523 30626","EPHEMERIS_TYPE":"0","OBJECT_NAME":"STARLINK-2015","BSTAR":"0.00001420800000","MEAN_ELEMENT_THEORY":"SGP4","ARG_OF_PERICENTER":"4.7002","LAUNCH_DATE":"2021-02-16","DECAY_DATE":null,"REV_AT_EPOCH":"3062","ELEMENT_SET_NO":"999","INCLINATION":"53.0417","NORAD_CAT_ID":"47638","MEAN_MOTION_DOT":"0.00001371","RCS_SIZE":"LARGE"},{"GP_ID":"183185545","TIME_SYSTEM":"UTC","MEAN_MOTION":"15.06389412","CENTER_NAME":"EARTH","ECCENTRICITY":"0.00009580","CLASSIFICATION_TYPE":"U","REF_FRAME":"TEME","SEMIMAJOR_AXIS":"6925.381","PERIOD":"95.593","RA_OF_ASC_NODE":"309.0765","MEAN_ANOMALY":"233.4867","TLE_LINE2":"2 47639  53.0549 309.0765 0000958 126.6210 233.4867 15.06389412 29864","EPHEMERIS_TYPE":"0","OBJECT_ID":"2021-012V","APOAPSIS":"547.909","FILE":"3100831","PERIAPSIS":"546.583","COUNTRY_CODE":"US","EPOCH":"2021-08-21T11:27:32.321952","TLE_LINE1":"1 47639U 21012V   21233.47745743 -.00000220  00000-0  41347-5 0  9996","OBJECT_TYPE":"PAYLOAD","SITE":"AFETR","MEAN_MOTION_DDOT":"0.0000000000000","DECAY_DATE":null,"LAUNCH_DATE":"2021-02-16","ARG_OF_PERICENTER":"126.6210","OBJECT_NAME":"STARLINK-2016","BSTAR":"0.00000413470000","MEAN_ELEMENT_THEORY":"SGP4","RCS_SIZE":"LARGE","MEAN_MOTION_DOT":"-0.00000220","ELEMENT_SET_NO":"999","INCLINATION":"53.0549","NORAD_CAT_ID":"47639","REV_AT_EPOCH":"2986"},{"REV_AT_EPOCH":"2961","NORAD_CAT_ID":"47640","INCLINATION":"53.0567","ELEMENT_SET_NO":"999","RCS_SIZE":"LARGE","MEAN_MOTION_DOT":"0.00000191","MEAN_ELEMENT_THEORY":"SGP4","OBJECT_NAME":"STARLINK-2018","BSTAR":"0.00003169800000","ARG_OF_PERICENTER":"90.9612","LAUNCH_DATE":"2021-02-16","DECAY_DATE":null,"MEAN_MOTION_DDOT":"0.0000000000000","SITE":"AFETR","OBJECT_TYPE":"PAYLOAD","EPOCH":"2021-08-21T12:55:06.916800","TLE_LINE1":"1 47640U 21012W   21233.53827450  .00000191  00000-0  31698-4 0  9994","COUNTRY_CODE":"US","PERIAPSIS":"546.336","FILE":"3100831","APOAPSIS":"548.144","OBJECT_ID":"2021-012W","EPHEMERIS_TYPE":"0","TLE_LINE2":"2 47640  53.0567 328.8163 0001305  90.9612 269.1527 15.06391310 29615","MEAN_ANOMALY":"269.1527","RA_OF_ASC_NODE":"328.8163","PERIOD":"95.593","SEMIMAJOR_AXIS":"6925.375","REF_FRAME":"TEME","CLASSIFICATION_TYPE":"U","ECCENTRICITY":"0.00013050","CENTER_NAME":"EARTH","MEAN_MOTION":"15.06391310","TIME_SYSTEM":"UTC","GP_ID":"183186295"},{"REV_AT_EPOCH":"3059","INCLINATION":"53.0427","NORAD_CAT_ID":"47641","ELEMENT_SET_NO":"999","RCS_SIZE":"LARGE","MEAN_MOTION_DOT":"0.00019426","MEAN_ELEMENT_THEORY":"SGP4","OBJECT_NAME":"STARLINK-2019","BSTAR":"0.00014212000000","ARG_OF_PERICENTER":"19.5561","LAUNCH_DATE":"2021-02-16","DECAY_DATE":null,"MEAN_MOTION_DDOT":"0.0000000000000","SITE":"AFETR","OBJECT_TYPE":"PAYLOAD","TLE_LINE1":"1 47641U 21012X   21233.34040665  .00019426  00000-0  14212-3 0  9992","EPOCH":"2021-08-21T08:10:11.134560","COUNTRY_CODE":"US","PERIAPSIS":"346.294","OBJECT_ID":"2021-012X","APOAPSIS":"352.929","FILE":"3100831","TLE_LINE2":"2 47641  53.0427 255.9645 0004931  19.5561 340.5645 15.73252183 30596","EPHEMERIS_TYPE":"0","MEAN_ANOMALY":"340.5645","RA_OF_ASC_NODE":"255.9645","PERIOD":"91.530","REF_FRAME":"TEME","SEMIMAJOR_AXIS":"6727.746","CLASSIFICATION_TYPE":"U","TIME_SYSTEM":"UTC","MEAN_MOTION":"15.73252183","ECCENTRICITY":"0.00049310","CENTER_NAME":"EARTH","GP_ID":"183186547"},{"MEAN_ANOMALY":"251.3946","EPHEMERIS_TYPE":"0","TLE_LINE2":"2 47642  53.0556 323.7981 0000979 108.7149 251.3946 15.06398162 29672","FILE":"3100831","APOAPSIS":"547.897","OBJECT_ID":"2021-012Y","PERIAPSIS":"546.541","COUNTRY_CODE":"US","TLE_LINE1":"1 47642U 21012Y   21233.53962527 -.00000854  00000-0 -38468-4 0  9991","EPOCH":"2021-08-21T12:57:03.623328","OBJECT_TYPE":"PAYLOAD","SITE":"AFETR","MEAN_MOTION_DDOT":"0.0000000000000","GP_ID":"183187297","CENTER_NAME":"EARTH","ECCENTRICITY":"0.00009790","MEAN_MOTION":"15.06398162","TIME_SYSTEM":"UTC","CLASSIFICATION_TYPE":"U","SEMIMAJOR_AXIS":"6925.354","REF_FRAME":"TEME","PERIOD":"95.592","RA_OF_ASC_NODE":"323.7981","RCS_SIZE":"LARGE","MEAN_MOTION_DOT":"-0.00000854","ELEMENT_SET_NO":"999","NORAD_CAT_ID":"47642","INCLINATION":"53.0556","REV_AT_EPOCH":"2967","DECAY_DATE":null,"LAUNCH_DATE":"2021-02-16","ARG_OF_PERICENTER":"108.7149","BSTAR":"-0.00003846800000","OBJECT_NAME":"STARLINK-2020","MEAN_ELEMENT_THEORY":"SGP4"},{"REF_FRAME":"TEME","SEMIMAJOR_AXIS":"6925.367","PERIOD":"95.593","RA_OF_ASC_NODE":"309.0212","GP_ID":"183186045","MEAN_MOTION":"15.06393923","TIME_SYSTEM":"UTC","CENTER_NAME":"EARTH","ECCENTRICITY":"0.00005400","CLASSIFICATION_TYPE":"U","COUNTRY_CODE":"US","EPOCH":"2021-08-21T11:48:45.328320","TLE_LINE1":"1 47643U 21012Z   21233.49219130 -.00001283  00000-0 -67288-4 0  9991","OBJECT_TYPE":"PAYLOAD","SITE":"AFETR","MEAN_MOTION_DDOT":"0.0000000000000","MEAN_ANOMALY":"240.1843","TLE_LINE2":"2 47643  53.0516 309.0212 0000540 119.9200 240.1843 15.06393923 29884","EPHEMERIS_TYPE":"0","OBJECT_ID":"2021-012Z","FILE":"3100831","APOAPSIS":"547.606","PERIAPSIS":"546.858","ARG_OF_PERICENTER":"119.9200","BSTAR":"-0.00006728800000","OBJECT_NAME":"STARLINK-2022","MEAN_ELEMENT_THEORY":"SGP4","DECAY_DATE":null,"LAUNCH_DATE":"2021-02-16","REV_AT_EPOCH":"2988","MEAN_MOTION_DOT":"-0.00001283","RCS_SIZE":"LARGE","ELEMENT_SET_NO":"999","INCLINATION":"53.0516","NORAD_CAT_ID":"47643"},{"REV_AT_EPOCH":"2962","ELEMENT_SET_NO":"999","INCLINATION":"53.0552","NORAD_CAT_ID":"47644","RCS_SIZE":"LARGE","MEAN_MOTION_DOT":"0.00001199","OBJECT_NAME":"STARLINK-2026","BSTAR":"0.00009935000000","MEAN_ELEMENT_THEORY":"SGP4","ARG_OF_PERICENTER":"97.2157","LAUNCH_DATE":"2021-02-16","DECAY_DATE":null,"SITE":"AFETR","OBJECT_TYPE":"PAYLOAD","MEAN_MOTION_DDOT":"0.0000000000000","COUNTRY_CODE":"US","EPOCH":"2021-08-21T13:42:52.882560","TLE_LINE1":"1 47644U 21012AA  21233.57144540  .00001199  00000-0  99350-4 0  9992","OBJECT_ID":"2021-012AA","FILE":"3100831","APOAPSIS":"547.943","PERIAPSIS":"546.529","MEAN_ANOMALY":"262.8949","TLE_LINE2":"2 47644  53.0552 328.6765 0001021  97.2157 262.8949 15.06392787 29626","EPHEMERIS_TYPE":"0","RA_OF_ASC_NODE":"328.6765","PERIOD":"95.593","REF_FRAME":"TEME","SEMIMAJOR_AXIS":"6925.371","TIME_SYSTEM":"UTC","MEAN_MOTION":"15.06392787","ECCENTRICITY":"0.00010210","CENTER_NAME":"EARTH","CLASSIFICATION_TYPE":"U","GP_ID":"183185796"},{"LAUNCH_DATE":"2021-02-16","DECAY_DATE":null,"MEAN_ELEMENT_THEORY":"SGP4","OBJECT_NAME":"STARLINK-2027","BSTAR":"0.00006133600000","ARG_OF_PERICENTER":"142.7464","INCLINATION":"53.0417","NORAD_CAT_ID":"47645","ELEMENT_SET_NO":"999","RCS_SIZE":"LARGE","MEAN_MOTION_DOT":"0.00000630","REV_AT_EPOCH":"3000","CLASSIFICATION_TYPE":"U","MEAN_MOTION":"15.06403563","TIME_SYSTEM":"UTC","CENTER_NAME":"EARTH","ECCENTRICITY":"0.00082130","GP_ID":"183187047","RA_OF_ASC_NODE":"299.0227","PERIOD":"95.592","REF_FRAME":"TEME","SEMIMAJOR_AXIS":"6925.338","PERIAPSIS":"541.515","OBJECT_ID":"2021-012AB","APOAPSIS":"552.890","FILE":"3100831","TLE_LINE2":"2 47645  53.0417 299.0227 0008213 142.7464 217.4096 15.06403563 30006","EPHEMERIS_TYPE":"0","MEAN_ANOMALY":"217.4096","MEAN_MOTION_DDOT":"0.0000000000000","SITE":"AFETR","OBJECT_TYPE":"PAYLOAD","EPOCH":"2021-08-21T12:04:38.633952","TLE_LINE1":"1 47645U 21012AB  21233.50322493  .00000630  00000-0  61336-4 0  9993","COUNTRY_CODE":"US"},{"RCS_SIZE":"LARGE","MEAN_MOTION_DOT":"0.00000136","ELEMENT_SET_NO":"999","NORAD_CAT_ID":"47646","INCLINATION":"53.0530","REV_AT_EPOCH":"3049","DECAY_DATE":null,"LAUNCH_DATE":"2021-02-16","ARG_OF_PERICENTER":"74.2401","OBJECT_NAME":"STARLINK-2028","BSTAR":"0.00002799900000","MEAN_ELEMENT_THEORY":"SGP4","MEAN_ANOMALY":"285.8760","EPHEMERIS_TYPE":"0","TLE_LINE2":"2 47646  53.0530 264.0208 0001556  74.2401 285.8760 15.06408698 30491","FILE":"3100831","APOAPSIS":"548.264","OBJECT_ID":"2021-012AC","PERIAPSIS":"546.109","COUNTRY_CODE":"US","TLE_LINE1":"1 47646U 21012AC  21233.48986881  .00000136  00000-0  27999-4 0  9996","EPOCH":"2021-08-21T11:45:24.665184","SITE":"AFETR","OBJECT_TYPE":"PAYLOAD","MEAN_MOTION_DDOT":"0.0000000000000","GP_ID":"183186798","ECCENTRICITY":"0.00015560","CENTER_NAME":"EARTH","MEAN_MOTION":"15.06408698","TIME_SYSTEM":"UTC","CLASSIFICATION_TYPE":"U","SEMIMAJOR_AXIS":"6925.322","REF_FRAME":"TEME","RA_OF_ASC_NODE":"264.0208","PERIOD":"95.592"}];
